# Made by eph2tle, compiled Feb 13 2019 14:45:51
# Last updated with 'current' THEMIS data Wed Jan 12 16:36:48 2022
#
# Max error 0.2
#
#    The following TLEs (Two-Line Elements) were generated by fitting
# numerically-integrated ephemerides from the OEM_CARA files at
#
# http://soleil.ssl.berkeley.edu/ground_systems/products/THEMIS/THEMIS_E/
#
# to the SDP4/SGP4 models.  Each TLE is good for the interval between
# its epoch and the epoch of the subsequent TLE (usually one day).
# The maximum deviation between the numerically integrated ephemerides
# and the TLE-based ephemeris, in kilometers,  is given for each TLE
# as the "worst residual".
#
#    The above site gives data covering about 18 days.  These TLEs will
# be updated every week or so to keep them au courant.
#
#    Almost all other TLEs on this site were computed from observations.
# I've done that for the Themis objects in the past,  but they maneuver.
# Using the above ephemerides and fitting TLEs to them appears to work
# much better.  (Space-Track TLEs,  as of early 2019,  are junk.)
#
#    If you use a TLE outside the "correct" time range (between its MJD
# and that of the next TLE),  all bets are off.  I've carefully computed
# and minimized the worst error over the "correct" time frame,  but the
# ephemeris may (or may not) diverge wildly outside of it.
#
#    This fitting is done using the 'eph2tle' code packaged with Find_Orb.
# The code has details on how the TLEs were computed :
#
#    https://github.com/Bill-Gray/find_orb/eph2tle.cpp
#
#    Be warned:  the error given is that between the numerically
# integrated ephems and the TLE model.  The THEMIS ephemerides appear
# to be pretty good,  so I think (but am not sure) that in this case,
# the stated errors are close to the real errors.  But if there are
# additional errors,  you should regard the "worst residuals" shown
# below as a lower limit on how bad the TLEs are;  there's no guarantee
# that they aren't actually worse than that.
#
# Ephem range: 58580.000000 59609.000000 1.000000
# Ephemeris start:  1 Jan 2022  0:00:00
# Ephemeris end:   30 Jan 2022  0:00:00
#
# 1 NoradU COSPAR   Epoch.epoch     dn/dt/2  d2n/dt2/6 BSTAR    T El# C
# 2 NoradU Inclina RAAscNode Eccent  ArgPeri MeanAno  MeanMotion Rev# C

# Worst residual: 14.51 km
# MJD 59580.000000 (2022 Jan  1  0:00)
NORAD 30798 = 2007-004E = THEMIS E
1 30798U 07004E   22001.49919926  .00000000  00000-0  00000-0 0 14527
2 30798 012.4699 001.3756 8346854 137.8381 116.9180 00.87842341    04

# Worst residual: 11.76 km
# MJD 59581.000000 (2022 Jan  2  0:00)
NORAD 30798 = 2007-004E = THEMIS E
1 30798U 07004E   22002.49919926  .00000000  00000-0  00000-0 0 14528
2 30798 012.4594 001.3199 8347800 137.9951 073.1257 00.87846333    09

# Worst residual: 8.94 km
# MJD 59582.000000 (2022 Jan  3  0:00)
NORAD 30798 = 2007-004E = THEMIS E
1 30798U 07004E   22003.49919926  .00000000  00000-0  00000-0 0 14529
2 30798 012.4472 001.2719 8349124 138.1480 029.3237 00.87865241    02
#
# 1 NoradU COSPAR   Epoch.epoch     dn/dt/2  d2n/dt2/6 BSTAR    T El# C
# 2 NoradU Inclina RAAscNode Eccent  ArgPeri MeanAno  MeanMotion Rev# C

# Worst residual: 10.80 km
# MJD 59583.000000 (2022 Jan  4  0:00)
NORAD 30798 = 2007-004E = THEMIS E
1 30798U 07004E   22004.49919926  .00000000  00000-0  00000-0 0 14665
2 30798 012.4313 001.2404 8350201 138.2948 345.4780 00.87864947    02

# Worst residual: 12.40 km
# MJD 59584.000000 (2022 Jan  5  0:00)
NORAD 30798 = 2007-004E = THEMIS E
1 30798U 07004E   22005.49919926  .00000000  00000-0  00000-0 0 14666
2 30798 012.4167 001.2020 8350490 138.4476 301.6347 00.87846477    02

# Worst residual: 11.60 km
# MJD 59585.000000 (2022 Jan  6  0:00)
NORAD 30798 = 2007-004E = THEMIS E
1 30798U 07004E   22006.49919926  .00000000  00000-0  00000-0 0 14667
2 30798 012.4067 001.1399 8349724 138.6212 257.8246 00.87836844    04

# Worst residual: 11.95 km
# MJD 59586.000000 (2022 Jan  7  0:00)
NORAD 30798 = 2007-004E = THEMIS E
1 30798U 07004E   22007.49919926  .00000000  00000-0  00000-0 0 14668
2 30798 012.3934 001.0844 8349938 138.7868 214.0207 00.87847447    08

# Worst residual: 12.54 km
# MJD 59587.000000 (2022 Jan  8  0:00)
NORAD 30798 = 2007-004E = THEMIS E
1 30798U 07004E   22008.49919926  .00000000  00000-0  00000-0 0 14669
2 30798 012.3872 001.0012 8349332 138.9695 170.2254 00.87853252    00

# Worst residual: 10.93 km
# MJD 59588.000000 (2022 Jan  9  0:00)
NORAD 30798 = 2007-004E = THEMIS E
1 30798U 07004E   22009.49919926  .00000000  00000-0  00000-0 0 14660
2 30798 012.3801 000.9258 8347772 139.1441 126.4372 00.87848376    05

# Worst residual: 11.60 km
# MJD 59589.000000 (2022 Jan 10  0:00)
NORAD 30798 = 2007-004E = THEMIS E
1 30798U 07004E   22010.49919926  .00000000  00000-0  00000-0 0 14662
2 30798 012.3743 000.8447 8347248 139.3244 082.6544 00.87851002    04

# Worst residual: 10.32 km
# MJD 59590.000000 (2022 Jan 11  0:00)
NORAD 30798 = 2007-004E = THEMIS E
1 30798U 07004E   22011.49919926  .00000000  00000-0  00000-0 0 14663
2 30798 012.3672 000.7732 8347381 139.4958 038.8677 00.87864835    00
#
# 1 NoradU COSPAR   Epoch.epoch     dn/dt/2  d2n/dt2/6 BSTAR    T El# C
# 2 NoradU Inclina RAAscNode Eccent  ArgPeri MeanAno  MeanMotion Rev# C

# Worst residual: 8.98 km
# MJD 59591.000000 (2022 Jan 12  0:00)
NORAD 30798 = 2007-004E = THEMIS E
1 30798U 07004E   22012.49919926  .00000000  00000-0  00000-0 0 14732
2 30798 012.3616 000.6936 8347764 139.6776 355.0715 00.87865947    00

# Worst residual: 10.35 km
# MJD 59592.000000 (2022 Jan 13  0:00)
NORAD 30798 = 2007-004E = THEMIS E
1 30798U 07004E   22013.49919926  .00000000  00000-0  00000-0 0 14733
2 30798 012.3554 000.6145 8348223 139.8604 311.2690 00.87855447    06

# Worst residual: 10.56 km
# MJD 59593.000000 (2022 Jan 14  0:00)
NORAD 30798 = 2007-004E = THEMIS E
1 30798U 07004E   22014.49919926  .00000000  00000-0  00000-0 0 14734
2 30798 012.3464 000.5419 8348572 140.0376 267.4733 00.87847135    01

# Worst residual: 15.31 km
# MJD 59594.000000 (2022 Jan 15  0:00)
NORAD 30798 = 2007-004E = THEMIS E
1 30798U 07004E   22015.49919926  .00000000  00000-0  00000-0 0 14735
2 30798 012.3406 000.4607 8349516 140.2237 223.6842 00.87851014    08

# Worst residual: 7.65 km
# MJD 59595.000000 (2022 Jan 16  0:00)
NORAD 30798 = 2007-004E = THEMIS E
1 30798U 07004E   22016.49919926  .00000000  00000-0  00000-0 0 14736
2 30798 012.3370 000.3682 8349589 140.4173 179.8936 00.87851012    05

# Worst residual: 10.02 km
# MJD 59596.000000 (2022 Jan 17  0:00)
NORAD 30798 = 2007-004E = THEMIS E
1 30798U 07004E   22017.49919926  .00000000  00000-0  00000-0 0 14737
2 30798 012.3333 000.2777 8348198 140.6128 136.0995 00.87844258    09

# Worst residual: 9.64 km
# MJD 59597.000000 (2022 Jan 18  0:00)
NORAD 30798 = 2007-004E = THEMIS E
1 30798U 07004E   22018.49919926  .00000000  00000-0  00000-0 0 14738
2 30798 012.3278 000.1945 8347999 140.7973 092.3175 00.87849683    01

# Worst residual: 10.87 km
# MJD 59598.000000 (2022 Jan 19  0:00)
NORAD 30798 = 2007-004E = THEMIS E
1 30798U 07004E   22019.49919926  .00000000  00000-0  00000-0 0 14739
2 30798 012.3223 000.1129 8347577 140.9806 048.5317 00.87859828    07

# Worst residual: 13.22 km
# MJD 59599.000000 (2022 Jan 20  0:00)
NORAD 30798 = 2007-004E = THEMIS E
1 30798U 07004E   22020.49919926  .00000000  00000-0  00000-0 0 14731
2 30798 012.3219 000.0107 8347540 141.1876 004.7341 00.87864953    03

# Worst residual: 11.08 km
# MJD 59600.000000 (2022 Jan 21  0:00)
NORAD 30798 = 2007-004E = THEMIS E
1 30798U 07004E   22021.49919926  .00000000  00000-0  00000-0 0 14732
2 30798 012.3186 359.9203 8347764 141.3798 320.9468 00.87853938    06

# Worst residual: 10.41 km
# MJD 59601.000000 (2022 Jan 22  0:00)
NORAD 30798 = 2007-004E = THEMIS E
1 30798U 07004E   22022.49919926  .00000000  00000-0  00000-0 0 14733
2 30798 012.3136 359.8343 8347809 141.5693 277.1520 00.87845352    04

# Worst residual: 12.87 km
# MJD 59602.000000 (2022 Jan 23  0:00)
NORAD 30798 = 2007-004E = THEMIS E
1 30798U 07004E   22023.49919926  .00000000  00000-0  00000-0 0 14734
2 30798 012.3039 359.7641 8348550 141.7483 233.3514 00.87844714    07

# Worst residual: 7.21 km
# MJD 59603.000000 (2022 Jan 24  0:00)
NORAD 30798 = 2007-004E = THEMIS E
1 30798U 07004E   22024.49919926  .00000000  00000-0  00000-0 0 14735
2 30798 012.2990 359.6814 8349331 141.9350 189.5588 00.87850422    02

# Worst residual: 11.24 km
# MJD 59604.000000 (2022 Jan 25  0:00)
NORAD 30798 = 2007-004E = THEMIS E
1 30798U 07004E   22025.49919926  .00000000  00000-0  00000-0 0 14736
2 30798 012.2926 359.6030 8347828 142.1205 145.7542 00.87843285    05

# Worst residual: 11.34 km
# MJD 59605.000000 (2022 Jan 26  0:00)
NORAD 30798 = 2007-004E = THEMIS E
1 30798U 07004E   22026.49919926  .00000000  00000-0  00000-0 0 14737
2 30798 012.2853 359.5170 8347217 142.3118 101.9501 00.87850138    09

# Worst residual: 11.34 km
# MJD 59606.000000 (2022 Jan 27  0:00)
NORAD 30798 = 2007-004E = THEMIS E
1 30798U 07004E   22027.49919926  .00000000  00000-0  00000-0 0 14738
2 30798 012.2788 359.4450 8346596 142.4843 058.1592 00.87862630    04

# Worst residual: 9.24 km
# MJD 59607.000000 (2022 Jan 28  0:00)
NORAD 30798 = 2007-004E = THEMIS E
1 30798U 07004E   22028.49919926  .00000000  00000-0  00000-0 0 14739
2 30798 012.2741 359.3598 8345977 142.6737 014.3568 00.87867771    09

# Worst residual: 11.48 km
# MJD 59608.000000 (2022 Jan 29  0:00)
NORAD 30798 = 2007-004E = THEMIS E
1 30798U 07004E   22029.49919926  .00000000  00000-0  00000-0 0 14730
2 30798 012.2665 359.2878 8346682 142.8485 330.5578 00.87860634    05
Avg worst resid: 10.71 km
Worst residual in entire run: 15.31 km on MJD 59594.0
       1     3     10    30    100   300   1K    3K    10K   km
     0     0     5    13     0     0     0     0     0     0
